2018-099Q               
1 43772U 18099Q   24195.89222713  .00015908  00000+0  96339-3 0  9990
2 43772  97.5226 256.7450 0006060 163.7098 196.4328 15.10665599306752
RANGE-A                 
1 43773U 18099R   24195.87656561  .00006575  00000+0  49619-3 0  9990
2 43773  97.5016 248.2589 0011525 233.9357 126.0801 15.02694338306444
HIBER-2                 
1 43774U 18099S   24195.74724083  .00015513  00000+0  89465-3 0  9997
2 43774  97.5412 257.8843 0009075 207.8871 152.1874 15.12423023306781
MOVE-II                 
1 43780U 18099Y   24195.68456004  .00022363  00000+0  11331-2 0  9999
2 43780  97.5197 258.4455 0005857 231.6169 128.4538 15.16970217306940
VESTA-1                 
1 43781U 18099Z   24195.72489115  .00017774  00000+0  10806-2 0  9990
2 43781  97.5163 253.0305 0005692 228.1735 131.9009 15.10501860306698
SNUSAT-2                
1 43782U 18099AA  24195.71191570  .00009066  00000+0  63502-3 0  9992
2 43782  97.5114 252.0040 0014420 207.3097 152.7374 15.05371527306560
SNUGLITE                
1 43784U 18099AC  24195.90788575  .00011488  00000+0  77878-3 0  9994
2 43784  97.4929 251.5208 0004241 201.8410 158.2637 15.06599290306667
ITASAT                  
1 43786U 18099AE  24195.73053776  .00006462  00000+0  46265-3 0  9997
2 43786  97.5076 252.2503 0015703 260.0646  99.8808 15.04646123306567
KAZSCISAT-1             
1 43787U 18099AF  24195.60193669  .00019693  00000+0  10394-2 0  9993
2 43787  97.5048 255.4818 0006155 203.6885 156.4064 15.15555548306937
EAGLET-I                
1 43790U 18099AJ  24195.87009066  .00005426  00000+0  40560-3 0  9991
2 43790  97.5266 252.8764 0012127 234.1713 125.8387 15.03127217306280
ESEO                    
1 43792U 18099AL  24195.82667844  .00003589  00000+0  29442-3 0  9996
2 43792  97.5134 249.5226 0010408 222.4162 137.6258 14.99806112306190
CSIM-FD                 
1 43793U 18099AM  24195.94076763  .00027479  00000+0  13990-2 0  9998
2 43793  97.5276 260.4411 0012256 212.4607 147.5873 15.16708190306833
ORBWEAVER 1             
1 43795U 18099AP  24195.77248988  .00134376  00000+0  25291-2 0  9993
2 43795  97.5267 270.2578 0004151 179.0942 181.0316 15.48038079307713
THEA                    
1 43796U 18099AQ  24195.92695960  .00012337  00000+0  79568-3 0  9996
2 43796  97.5436 257.4417 0012536 220.0579 139.9725 15.08373103305732
ASTROCAST 0.1           
1 43798U 18099AS  24195.73679001  .00012354  00000+0  71508-3 0  9990
2 43798  97.5333 258.4709 0009952 188.7647 171.3411 15.12337062306898
JY1SAT (JO-97)          
1 43803U 18099AX  24195.71466249  .00011363  00000+0  74274-3 0  9995
2 43803  97.5182 253.8015 0009594 203.8026 156.2760 15.07923715306695
SUOMI-100               
1 43804U 18099AY  24195.71348620  .00009783  00000+0  65376-3 0  9994
2 43804  97.5254 253.5928 0015480 205.9969 154.0483 15.07087351306679
AL-FARABI 2             
1 43805U 18099AZ  24195.89162398  .00016827  00000+0  98709-3 0  9993
2 43805  97.5087 255.6811 0010685 190.9597 169.1403 15.11775487306870
CENTAURI-1              
1 43809U 18099BD  24195.87498302  .00006683  00000+0  48540-3 0  9999
2 43809  97.5276 252.6050 0017140 224.8308 135.1534 15.04072812306294
GLOBAL-2                
1 43812U 18099BG  24195.86339719  .00004814  00000+0  38206-3 0  9990
2 43812  97.4685 249.5939 0004433  63.2884 296.8793 15.00938045306092
BRIO                    
1 43813U 18099BH  24195.76765925  .00022519  00000+0  11530-2 0  9994
2 43813  97.5657 264.0716 0007215 188.5043 171.6068 15.16594920306718
SEAHAWK-1               
1 43820U 18099BQ  24195.78684118  .00009028  00000+0  62958-3 0  9999
2 43820  97.5008 251.4732 0011370 222.4230 137.6119 15.05566528306032
SAUDISAT 5A             
1 43831U 18102A   24195.90782152  .00007107  00000+0  36928-3 0  9991
2 43831  97.4064 260.9038 0013926  87.7747 272.5081 15.16304935308643
SAUDISAT 5B             
1 43833U 18102C   24195.93455276  .00007604  00000+0  38764-3 0  9992
2 43833  97.4113 262.7933 0014650  91.1095 269.1817 15.16946672308733
2018-102D               
1 43834U 18102D   24195.89056329  .00013602  00000+0  59009-3 0  9994
2 43834  97.4231 267.1311 0012310  84.9454 275.3187 15.22396881308955
2018-102E               
1 43835U 18102E   24195.93411173  .00035134  00000+0  99194-3 0  9995
2 43835  97.4285 274.1170 0009308  66.6249 293.5973 15.36251053309411
2018-102F               
1 43836U 18102F   24195.87682788  .00039318  00000+0  10691-2 0  9993
2 43836  97.4341 275.7638 0009046  68.2865 291.9341 15.37400579309435
2018-102G               
1 43837U 18102G   24195.92167047  .00045170  00000+0  11165-2 0  9996
2 43837  97.4373 277.6111 0008361  67.7748 292.4384 15.40306493309562
2018-102H               
1 43838U 18102H   24195.93985833  .00134536  00000+0  17995-2 0  9991
2 43838  97.3818 279.3720 0003028  41.3719 318.7765 15.57563093309836
2018-102J               
1 43839U 18102J   24195.89829798  .00038905  00000+0  10428-2 0  9991
2 43839  97.4539 280.5054 0010099  71.1225 289.1114 15.37837513309547
ISAT                    
1 43879U 18111D   24195.70273644  .00012943  00000+0  77300-3 0  9995
2 43879  97.6159 101.2876 0010777 267.1451  92.8545 15.11189872303421
UWE-4                   
1 43880U 18111E   24195.24231503  .00010023  00000+0  61641-3 0  9992
2 43880  97.6081 100.7824 0014327 280.1692  79.7921 15.10155385303367
D-STAR ONE (SPARROW)    
1 43881U 18111F   24195.73104702  .00013262  00000+0  78091-3 0  9992
2 43881  97.6254 103.2681 0008191 318.6994  41.3616 15.11718984303494
LEMUR-2-TINYKEV         
1 43883U 18111H   24195.75244700  .00038251  00000+0  15057-2 0  9996
2 43883  97.6086 109.2350 0005564 206.9242 153.1708 15.25510350303940
LEMUR-2-REMY-COLTON     
1 43884U 18111J   24195.71196662  .00027143  00000+0  12165-2 0  9991
2 43884  97.6260 109.5292 0001583 120.1535 239.9857 15.21203088301884
MICRODRAGON             
1 43935U 19003D   24195.78147625  .00100793  00000+0  93935-3 0  9999
2 43935  97.0730 211.8185 0001899 304.1667  55.9414 15.67031568306090
JILIN-1 09              
1 43943U 19005B   24195.92722515  .00007579  00000+0  41778-3 0  9999
2 43943  97.4890 289.3358 0009588 276.8196  83.1945 15.14234534302545
JILIN-1 10              
1 43946U 19005E   24195.89450901  .00007289  00000+0  40175-3 0  9993
2 43946  97.4886 289.3440 0013980 225.8355 134.1729 15.14206107302460
EGYPTSAT-A (MISRSAT-A)  
1 44047U 19008A   24195.88135327  .00001362  00000+0  22339-3 0  9998
2 44047  98.0129 259.7507 0001130  99.7852 260.3483 14.72274389289754
EMISAT                  
1 44078U 19018A   24195.88962514  .00000590  00000+0  18607-3 0  9994
2 44078  98.3362 254.6012 0018716 180.2818 179.8366 14.43705080278589
JILIN-1 GAOFEN 3A       
1 44312U 19032C   24195.90672882  .00009551  00000+0  55992-3 0  9994
2 44312  44.9822 210.2388 0010386 268.4489  91.5198 15.12034090280624
XIAOXIANG 4             
1 44313U 19032D   24195.86360027  .00020207  00000+0  93251-3 0  9996
2 44313  44.9891 192.9874 0007824 291.9725  68.0323 15.19947035280936
WT 1A                   
1 44315U 19032F   24195.89864358  .00012298  00000+0  61707-3 0  9999
2 44315  44.9768 189.1294 0011631 295.4604  64.5071 15.17340081280882
WT 1B                   
1 44316U 19032G   24195.85157008  .00006224  00000+0  41801-3 0  9998
2 44316  44.9795 244.5279 0014359 235.8854 124.0659 15.07527744280221
PROX-1                  
1 44339U 19036A   24195.90729687  .00013552  00000+0  23017-2 0  9991
2 44339  24.0005  53.4478 0008849 300.1629  59.7989 14.67444676269178
NPSAT1                  
1 44340U 19036B   24195.88922186  .00008382  00000+0  15923-2 0  9991
2 44340  24.0004  79.6310 0009545 248.1644 111.7834 14.62039262268944
FORMOSAT 7-3            
1 44343U 19036E   24195.73643631  .00009976  00000+0  55927-3 0  9992
2 44343  24.0005 328.4495 0000917 192.6679 167.3802 15.11087314276916
FORMOSAT 7-1            
1 44349U 19036L   24195.93403411  .00010140  00000+0  56875-3 0  9998
2 44349  23.9983 143.0685 0002173 231.1172 128.9138 15.11086014278711
FORMOSAT 7-4            
1 44350U 19036M   24195.42741854  .00008384  00000+0  46683-3 0  9993
2 44350  23.9977 208.6534 0002528 198.0830 161.9585 15.11086001278059
FORMOSAT 7-2            
1 44351U 19036N   24195.84655778  .00009513  00000+0  53184-3 0  9998
2 44351  23.9984 260.0999 0002150 172.3432 187.7105 15.11123531277636
FORMOSAT 7-6            
1 44353U 19036Q   24195.91247978  .00010940  00000+0  61540-3 0  9998
2 44353  23.9998  80.4612 0000639 279.1228  80.9204 15.11074913275875
FORMOSAT 7-5            
1 44358U 19036V   24195.89027835  .00010966  00000+0  61744-3 0  9992
2 44358  24.0008  20.3927 0001888  44.8652 315.2005 15.11043165276397
METEOR-M2 2             
1 44387U 19038A   24195.92311263  .00000102  00000+0  64288-4 0  9999
2 44387  98.8280 165.2539 0000459 178.2210 181.8970 14.23901153261195
NSL-1                   
1 44391U 19038E   24195.94387700  .00399494  00000+0  29209-2 0  9992
2 44391  97.8724 207.5291 0012142 144.9449 215.2615 15.71972503276255
SONATE                  
1 44400U 19038Q   24195.93443159  .00027893  00000+0  80873-3 0  9999
2 44400  97.7127 191.2468 0015572  20.7143 339.4727 15.35390484278188
LUCKY-7                 
1 44406U 19038W   24195.91375520  .00051436  00000+0  10285-2 0  9998
2 44406  97.7016 195.7357 0010811   7.5684 352.5726 15.46567532278492
COSMOS 2535             
1 44421U 19039A   24195.92175866  .00002152  00000+0  23600-3 0  9995
2 44421  97.6651 237.6854 0009648  38.4285 321.7618 14.88700124271871
QIANSHENG 1-01          
1 44486U 19052A   24195.88725127  .00029363  00000+0  11038-2 0  9991
2 44486  97.4089 264.0922 0013946 197.4866 162.5895 15.27023803270774
TIANQI-2                
1 44488U 19052C   24195.89001121  .00059053  00000+0  13320-2 0  9990
2 44488  97.4079 270.9358 0012373 177.8609 182.2693 15.42956113271237
